{
"type": "FeatureCollection",
"name": "EvaluationPoints_Migone_etal_2025",
"crs": { "type": "name", "properties": { "name": "urn:ogc:def:crs:EPSG::32721" } },
"features": [
{ "type": "Feature", "properties": { "W_Class_id": 1, "W_Class_name": "Pond", "id": 0 }, "geometry": { "type": "Point", "coordinates": [ 299504.999999994761311, 6157505.00000000372529, 0.0 ] } },
{ "type": "Feature", "properties": { "W_Class_id": 2, "W_Class_name": "Wet meadows", "id": 1 }, "geometry": { "type": "Point", "coordinates": [ 337604.999999999534339, 6136655.00000000372529, 0.0 ] } },
{ "type": "Feature", "properties": { "W_Class_id": 0, "W_Class_name": "Non-wetlands", "id": 2 }, "geometry": { "type": "Point", "coordinates": [ 348165.000000000814907, 6128335.0, 0.0 ] } },
{ "type": "Feature", "properties": { "W_Class_id": 4, "W_Class_name": "Rivers", "id": 3 }, "geometry": { "type": "Point", "coordinates": [ 375575.000000004656613, 6165845.000000002793968, 0.0 ] } },
{ "type": "Feature", "properties": { "W_Class_id": 0, "W_Class_name": "Non-wetlands", "id": 4 }, "geometry": { "type": "Point", "coordinates": [ 369794.999999998952262, 6149175.000000001862645, 0.0 ] } },
{ "type": "Feature", "properties": { "W_Class_id": 0, "W_Class_name": "Non-wetlands", "id": 5 }, "geometry": { "type": "Point", "coordinates": [ 373854.999999995576218, 6162075.00000000372529, 0.0 ] } },
{ "type": "Feature", "properties": { "W_Class_id": 0, "W_Class_name": "Non-wetlands", "id": 6 }, "geometry": { "type": "Point", "coordinates": [ 362534.999999996740371, 6134175.0, 0.0 ] } },
{ "type": "Feature", "properties": { "W_Class_id": 0, "W_Class_name": "Non-wetlands", "id": 7 }, "geometry": { "type": "Point", "coordinates": [ 337704.999999998079147, 6166055.0, 0.0 ] } },
{ "type": "Feature", "properties": { "W_Class_id": 0, "W_Class_name": "Non-wetlands", "id": 8 }, "geometry": { "type": "Point", "coordinates": [ 369504.999999994761311, 6152535.000000005587935, 0.0 ] } },
{ "type": "Feature", "properties": { "W_Class_id": 4, "W_Class_name": "Rivers", "id": 9 }, "geometry": { "type": "Point", "coordinates": [ 366744.999999998952262, 6159485.0, 0.0 ] } },
{ "type": "Feature", "properties": { "W_Class_id": 0, "W_Class_name": "Non-wetlands", "id": 10 }, "geometry": { "type": "Point", "coordinates": [ 328115.000000002677552, 6137715.00000000372529, 0.0 ] } },
{ "type": "Feature", "properties": { "W_Class_id": 2, "W_Class_name": "Wet meadows", "id": 11 }, "geometry": { "type": "Point", "coordinates": [ 313534.999999998137355, 6128385.000000004656613, 0.0 ] } },
{ "type": "Feature", "properties": { "W_Class_id": 2, "W_Class_name": "Wet meadows", "id": 12 }, "geometry": { "type": "Point", "coordinates": [ 359725.000000002561137, 6125955.000000002793968, 0.0 ] } },
{ "type": "Feature", "properties": { "W_Class_id": 0, "W_Class_name": "Non-wetlands", "id": 13 }, "geometry": { "type": "Point", "coordinates": [ 334805.000000001222361, 6166835.000000006519258, 0.0 ] } },
{ "type": "Feature", "properties": { "W_Class_id": 0, "W_Class_name": "Non-wetlands", "id": 14 }, "geometry": { "type": "Point", "coordinates": [ 338634.999999999185093, 6123035.0, 0.0 ] } },
{ "type": "Feature", "properties": { "W_Class_id": 2, "W_Class_name": "Wet meadows", "id": 15 }, "geometry": { "type": "Point", "coordinates": [ 336035.000000003667083, 6123215.0, 0.0 ] } },
{ "type": "Feature", "properties": { "W_Class_id": 0, "W_Class_name": "Non-wetlands", "id": 16 }, "geometry": { "type": "Point", "coordinates": [ 339225.000000003026798, 6118375.000000004656613, 0.0 ] } },
{ "type": "Feature", "properties": { "W_Class_id": 0, "W_Class_name": "Non-wetlands", "id": 17 }, "geometry": { "type": "Point", "coordinates": [ 331754.999999996740371, 6163345.0, 0.0 ] } },
{ "type": "Feature", "properties": { "W_Class_id": 2, "W_Class_name": "Wet meadows", "id": 18 }, "geometry": { "type": "Point", "coordinates": [ 320295.000000001280569, 6157044.999999998137355, 0.0 ] } },
{ "type": "Feature", "properties": { "W_Class_id": 0, "W_Class_name": "Non-wetlands", "id": 19 }, "geometry": { "type": "Point", "coordinates": [ 343624.999999999301508, 6140305.000000004656613, 0.0 ] } },
{ "type": "Feature", "properties": { "W_Class_id": 0, "W_Class_name": "Non-wetlands", "id": 20 }, "geometry": { "type": "Point", "coordinates": [ 348014.999999996565748, 6121765.00000000372529, 0.0 ] } },
{ "type": "Feature", "properties": { "W_Class_id": 1, "W_Class_name": "Pond", "id": 21 }, "geometry": { "type": "Point", "coordinates": [ 313524.999999997671694, 6140125.000000002793968, 0.0 ] } },
{ "type": "Feature", "properties": { "W_Class_id": 0, "W_Class_name": "Non-wetlands", "id": 22 }, "geometry": { "type": "Point", "coordinates": [ 370214.999999995459802, 6165405.00000000372529, 0.0 ] } },
{ "type": "Feature", "properties": { "W_Class_id": 0, "W_Class_name": "Non-wetlands", "id": 23 }, "geometry": { "type": "Point", "coordinates": [ 345534.999999999185093, 6159995.0, 0.0 ] } },
{ "type": "Feature", "properties": { "W_Class_id": 4, "W_Class_name": "Rivers", "id": 24 }, "geometry": { "type": "Point", "coordinates": [ 312095.000000001513399, 6164204.999999998137355, 0.0 ] } },
{ "type": "Feature", "properties": { "W_Class_id": 0, "W_Class_name": "Non-wetlands", "id": 25 }, "geometry": { "type": "Point", "coordinates": [ 349044.999999994237442, 6166935.00000000372529, 0.0 ] } },
{ "type": "Feature", "properties": { "W_Class_id": 3, "W_Class_name": "Artificial wetlands", "id": 26 }, "geometry": { "type": "Point", "coordinates": [ 328665.000000003317837, 6159284.999999998137355, 0.0 ] } },
{ "type": "Feature", "properties": { "W_Class_id": 0, "W_Class_name": "Non-wetlands", "id": 27 }, "geometry": { "type": "Point", "coordinates": [ 356104.999999995983671, 6175805.000000005587935, 0.0 ] } },
{ "type": "Feature", "properties": { "W_Class_id": 4, "W_Class_name": "Rivers", "id": 28 }, "geometry": { "type": "Point", "coordinates": [ 349234.999999995110556, 6174485.0, 0.0 ] } },
{ "type": "Feature", "properties": { "W_Class_id": 0, "W_Class_name": "Non-wetlands", "id": 29 }, "geometry": { "type": "Point", "coordinates": [ 367614.999999997438863, 6144805.00000000372529, 0.0 ] } },
{ "type": "Feature", "properties": { "W_Class_id": 3, "W_Class_name": "Artificial wetlands", "id": 30 }, "geometry": { "type": "Point", "coordinates": [ 327684.999999999417923, 6161585.000000001862645, 0.0 ] } },
{ "type": "Feature", "properties": { "W_Class_id": 4, "W_Class_name": "Rivers", "id": 31 }, "geometry": { "type": "Point", "coordinates": [ 350385.000000004016329, 6175514.999999995343387, 0.0 ] } },
{ "type": "Feature", "properties": { "W_Class_id": 0, "W_Class_name": "Non-wetlands", "id": 32 }, "geometry": { "type": "Point", "coordinates": [ 367115.000000003667083, 6157394.999999998137355, 0.0 ] } },
{ "type": "Feature", "properties": { "W_Class_id": 4, "W_Class_name": "Rivers", "id": 33 }, "geometry": { "type": "Point", "coordinates": [ 359945.000000000814907, 6153595.0, 0.0 ] } },
{ "type": "Feature", "properties": { "W_Class_id": 2, "W_Class_name": "Wet meadows", "id": 34 }, "geometry": { "type": "Point", "coordinates": [ 323044.999999999883585, 6139364.999999995343387, 0.0 ] } },
{ "type": "Feature", "properties": { "W_Class_id": 3, "W_Class_name": "Artificial wetlands", "id": 35 }, "geometry": { "type": "Point", "coordinates": [ 350255.000000003550667, 6187235.000000005587935, 0.0 ] } },
{ "type": "Feature", "properties": { "W_Class_id": 0, "W_Class_name": "Non-wetlands", "id": 36 }, "geometry": { "type": "Point", "coordinates": [ 334604.999999996856786, 6153575.0, 0.0 ] } },
{ "type": "Feature", "properties": { "W_Class_id": 4, "W_Class_name": "Rivers", "id": 37 }, "geometry": { "type": "Point", "coordinates": [ 364065.000000000407454, 6156145.0, 0.0 ] } },
{ "type": "Feature", "properties": { "W_Class_id": 0, "W_Class_name": "Non-wetlands", "id": 38 }, "geometry": { "type": "Point", "coordinates": [ 364435.000000004656613, 6157755.000000002793968, 0.0 ] } },
{ "type": "Feature", "properties": { "W_Class_id": 0, "W_Class_name": "Non-wetlands", "id": 39 }, "geometry": { "type": "Point", "coordinates": [ 312265.00000000349246, 6135185.000000001862645, 0.0 ] } },
{ "type": "Feature", "properties": { "W_Class_id": 3, "W_Class_name": "Artificial wetlands", "id": 40 }, "geometry": { "type": "Point", "coordinates": [ 339955.000000001513399, 6114025.0, 0.0 ] } },
{ "type": "Feature", "properties": { "W_Class_id": 2, "W_Class_name": "Wet meadows", "id": 41 }, "geometry": { "type": "Point", "coordinates": [ 331814.999999996158294, 6135575.0, 0.0 ] } },
{ "type": "Feature", "properties": { "W_Class_id": 1, "W_Class_name": "Pond", "id": 42 }, "geometry": { "type": "Point", "coordinates": [ 338045.000000000523869, 6135334.999999994412065, 0.0 ] } },
{ "type": "Feature", "properties": { "W_Class_id": 0, "W_Class_name": "Non-wetlands", "id": 43 }, "geometry": { "type": "Point", "coordinates": [ 330464.999999997322448, 6120385.0, 0.0 ] } },
{ "type": "Feature", "properties": { "W_Class_id": 4, "W_Class_name": "Rivers", "id": 44 }, "geometry": { "type": "Point", "coordinates": [ 352784.999999998952262, 6184544.999999994412065, 0.0 ] } },
{ "type": "Feature", "properties": { "W_Class_id": 0, "W_Class_name": "Non-wetlands", "id": 45 }, "geometry": { "type": "Point", "coordinates": [ 363784.999999998370185, 6146485.0, 0.0 ] } },
{ "type": "Feature", "properties": { "W_Class_id": 1, "W_Class_name": "Pond", "id": 46 }, "geometry": { "type": "Point", "coordinates": [ 317385.000000002444722, 6149914.999999998137355, 0.0 ] } },
{ "type": "Feature", "properties": { "W_Class_id": 0, "W_Class_name": "Non-wetlands", "id": 47 }, "geometry": { "type": "Point", "coordinates": [ 372845.000000000814907, 6139225.000000002793968, 0.0 ] } },
{ "type": "Feature", "properties": { "W_Class_id": 0, "W_Class_name": "Non-wetlands", "id": 48 }, "geometry": { "type": "Point", "coordinates": [ 304165.000000001571607, 6141325.0, 0.0 ] } },
{ "type": "Feature", "properties": { "W_Class_id": 0, "W_Class_name": "Non-wetlands", "id": 49 }, "geometry": { "type": "Point", "coordinates": [ 363634.999999999301508, 6151975.000000002793968, 0.0 ] } },
{ "type": "Feature", "properties": { "W_Class_id": 3, "W_Class_name": "Artificial wetlands", "id": 50 }, "geometry": { "type": "Point", "coordinates": [ 349864.999999998719431, 6191165.0, 0.0 ] } },
{ "type": "Feature", "properties": { "W_Class_id": 0, "W_Class_name": "Non-wetlands", "id": 51 }, "geometry": { "type": "Point", "coordinates": [ 340814.999999996740371, 6176445.000000002793968, 0.0 ] } },
{ "type": "Feature", "properties": { "W_Class_id": 2, "W_Class_name": "Wet meadows", "id": 52 }, "geometry": { "type": "Point", "coordinates": [ 338494.999999995226972, 6115294.999999998137355, 0.0 ] } },
{ "type": "Feature", "properties": { "W_Class_id": 4, "W_Class_name": "Rivers", "id": 53 }, "geometry": { "type": "Point", "coordinates": [ 341945.000000003958121, 6167364.999999998137355, 0.0 ] } },
{ "type": "Feature", "properties": { "W_Class_id": 1, "W_Class_name": "Pond", "id": 54 }, "geometry": { "type": "Point", "coordinates": [ 300865.000000003259629, 6142755.000000005587935, 0.0 ] } },
{ "type": "Feature", "properties": { "W_Class_id": 1, "W_Class_name": "Pond", "id": 55 }, "geometry": { "type": "Point", "coordinates": [ 298774.999999998370185, 6160415.0, 0.0 ] } },
{ "type": "Feature", "properties": { "W_Class_id": 0, "W_Class_name": "Non-wetlands", "id": 56 }, "geometry": { "type": "Point", "coordinates": [ 333055.000000002561137, 6118845.00000000372529, 0.0 ] } },
{ "type": "Feature", "properties": { "W_Class_id": 3, "W_Class_name": "Artificial wetlands", "id": 57 }, "geometry": { "type": "Point", "coordinates": [ 346645.000000000232831, 6154434.999999994412065, 0.0 ] } },
{ "type": "Feature", "properties": { "W_Class_id": 2, "W_Class_name": "Wet meadows", "id": 58 }, "geometry": { "type": "Point", "coordinates": [ 318434.999999997089617, 6145315.000000001862645, 0.0 ] } },
{ "type": "Feature", "properties": { "W_Class_id": 1, "W_Class_name": "Pond", "id": 59 }, "geometry": { "type": "Point", "coordinates": [ 312545.0, 6156105.00000000372529, 0.0 ] } },
{ "type": "Feature", "properties": { "W_Class_id": 0, "W_Class_name": "Non-wetlands", "id": 60 }, "geometry": { "type": "Point", "coordinates": [ 327515.000000001396984, 6120895.0, 0.0 ] } },
{ "type": "Feature", "properties": { "W_Class_id": 0, "W_Class_name": "Non-wetlands", "id": 61 }, "geometry": { "type": "Point", "coordinates": [ 323735.000000000698492, 6158964.999999998137355, 0.0 ] } },
{ "type": "Feature", "properties": { "W_Class_id": 4, "W_Class_name": "Rivers", "id": 62 }, "geometry": { "type": "Point", "coordinates": [ 342564.999999995634425, 6169084.999999998137355, 0.0 ] } },
{ "type": "Feature", "properties": { "W_Class_id": 0, "W_Class_name": "Non-wetlands", "id": 63 }, "geometry": { "type": "Point", "coordinates": [ 359554.999999996391125, 6128985.000000004656613, 0.0 ] } },
{ "type": "Feature", "properties": { "W_Class_id": 1, "W_Class_name": "Pond", "id": 64 }, "geometry": { "type": "Point", "coordinates": [ 303855.000000000232831, 6138595.00000000372529, 0.0 ] } },
{ "type": "Feature", "properties": { "W_Class_id": 1, "W_Class_name": "Pond", "id": 65 }, "geometry": { "type": "Point", "coordinates": [ 305795.000000000232831, 6137955.000000004656613, 0.0 ] } },
{ "type": "Feature", "properties": { "W_Class_id": 0, "W_Class_name": "Non-wetlands", "id": 66 }, "geometry": { "type": "Point", "coordinates": [ 336305.000000004540198, 6136085.00000000372529, 0.0 ] } },
{ "type": "Feature", "properties": { "W_Class_id": 0, "W_Class_name": "Non-wetlands", "id": 67 }, "geometry": { "type": "Point", "coordinates": [ 332485.000000000349246, 6146515.0, 0.0 ] } },
{ "type": "Feature", "properties": { "W_Class_id": 4, "W_Class_name": "Rivers", "id": 68 }, "geometry": { "type": "Point", "coordinates": [ 345875.000000000698492, 6172845.000000002793968, 0.0 ] } },
{ "type": "Feature", "properties": { "W_Class_id": 0, "W_Class_name": "Non-wetlands", "id": 69 }, "geometry": { "type": "Point", "coordinates": [ 343034.999999997322448, 6172645.0, 0.0 ] } },
{ "type": "Feature", "properties": { "W_Class_id": 0, "W_Class_name": "Non-wetlands", "id": 70 }, "geometry": { "type": "Point", "coordinates": [ 334174.999999996740371, 6166944.999999998137355, 0.0 ] } },
{ "type": "Feature", "properties": { "W_Class_id": 0, "W_Class_name": "Non-wetlands", "id": 71 }, "geometry": { "type": "Point", "coordinates": [ 330865.00000000273576, 6174825.000000005587935, 0.0 ] } },
{ "type": "Feature", "properties": { "W_Class_id": 2, "W_Class_name": "Wet meadows", "id": 72 }, "geometry": { "type": "Point", "coordinates": [ 356025.00000000197906, 6151135.0, 0.0 ] } },
{ "type": "Feature", "properties": { "W_Class_id": 2, "W_Class_name": "Wet meadows", "id": 73 }, "geometry": { "type": "Point", "coordinates": [ 349745.000000001396984, 6123925.0, 0.0 ] } },
{ "type": "Feature", "properties": { "W_Class_id": 0, "W_Class_name": "Non-wetlands", "id": 74 }, "geometry": { "type": "Point", "coordinates": [ 338084.999999998486601, 6137944.999999998137355, 0.0 ] } },
{ "type": "Feature", "properties": { "W_Class_id": 3, "W_Class_name": "Artificial wetlands", "id": 75 }, "geometry": { "type": "Point", "coordinates": [ 357875.000000000232831, 6138505.0, 0.0 ] } },
{ "type": "Feature", "properties": { "W_Class_id": 2, "W_Class_name": "Wet meadows", "id": 76 }, "geometry": { "type": "Point", "coordinates": [ 333454.999999995459802, 6133804.999999994412065, 0.0 ] } },
{ "type": "Feature", "properties": { "W_Class_id": 1, "W_Class_name": "Pond", "id": 77 }, "geometry": { "type": "Point", "coordinates": [ 305464.999999996158294, 6142705.0, 0.0 ] } },
{ "type": "Feature", "properties": { "W_Class_id": 0, "W_Class_name": "Non-wetlands", "id": 78 }, "geometry": { "type": "Point", "coordinates": [ 346855.000000002211891, 6173455.000000005587935, 0.0 ] } },
{ "type": "Feature", "properties": { "W_Class_id": 2, "W_Class_name": "Wet meadows", "id": 79 }, "geometry": { "type": "Point", "coordinates": [ 306975.000000002328306, 6134735.000000001862645, 0.0 ] } },
{ "type": "Feature", "properties": { "W_Class_id": 0, "W_Class_name": "Non-wetlands", "id": 80 }, "geometry": { "type": "Point", "coordinates": [ 311035.000000004598405, 6165065.000000005587935, 0.0 ] } },
{ "type": "Feature", "properties": { "W_Class_id": 4, "W_Class_name": "Rivers", "id": 81 }, "geometry": { "type": "Point", "coordinates": [ 307964.999999995110556, 6163984.999999998137355, 0.0 ] } },
{ "type": "Feature", "properties": { "W_Class_id": 3, "W_Class_name": "Artificial wetlands", "id": 82 }, "geometry": { "type": "Point", "coordinates": [ 352545.000000003958121, 6178065.0, 0.0 ] } },
{ "type": "Feature", "properties": { "W_Class_id": 0, "W_Class_name": "Non-wetlands", "id": 83 }, "geometry": { "type": "Point", "coordinates": [ 370494.999999998661224, 6141705.000000005587935, 0.0 ] } },
{ "type": "Feature", "properties": { "W_Class_id": 0, "W_Class_name": "Non-wetlands", "id": 84 }, "geometry": { "type": "Point", "coordinates": [ 341554.999999999534339, 6139415.00000000372529, 0.0 ] } },
{ "type": "Feature", "properties": { "W_Class_id": 3, "W_Class_name": "Artificial wetlands", "id": 85 }, "geometry": { "type": "Point", "coordinates": [ 355355.000000002561137, 6140784.999999994412065, 0.0 ] } },
{ "type": "Feature", "properties": { "W_Class_id": 0, "W_Class_name": "Non-wetlands", "id": 86 }, "geometry": { "type": "Point", "coordinates": [ 330894.999999997089617, 6155315.0, 0.0 ] } },
{ "type": "Feature", "properties": { "W_Class_id": 0, "W_Class_name": "Non-wetlands", "id": 87 }, "geometry": { "type": "Point", "coordinates": [ 337764.999999998777639, 6133755.000000002793968, 0.0 ] } },
{ "type": "Feature", "properties": { "W_Class_id": 0, "W_Class_name": "Non-wetlands", "id": 88 }, "geometry": { "type": "Point", "coordinates": [ 337514.999999998894054, 6160855.0, 0.0 ] } },
{ "type": "Feature", "properties": { "W_Class_id": 3, "W_Class_name": "Artificial wetlands", "id": 89 }, "geometry": { "type": "Point", "coordinates": [ 344314.999999999185093, 6135354.999999998137355, 0.0 ] } },
{ "type": "Feature", "properties": { "W_Class_id": 0, "W_Class_name": "Non-wetlands", "id": 90 }, "geometry": { "type": "Point", "coordinates": [ 372395.000000002677552, 6163225.000000001862645, 0.0 ] } },
{ "type": "Feature", "properties": { "W_Class_id": 4, "W_Class_name": "Rivers", "id": 91 }, "geometry": { "type": "Point", "coordinates": [ 351535.000000002910383, 6189535.0, 0.0 ] } },
{ "type": "Feature", "properties": { "W_Class_id": 0, "W_Class_name": "Non-wetlands", "id": 92 }, "geometry": { "type": "Point", "coordinates": [ 309065.000000003317837, 6142935.0, 0.0 ] } },
{ "type": "Feature", "properties": { "W_Class_id": 4, "W_Class_name": "Rivers", "id": 93 }, "geometry": { "type": "Point", "coordinates": [ 367794.999999996856786, 6161055.0, 0.0 ] } },
{ "type": "Feature", "properties": { "W_Class_id": 0, "W_Class_name": "Non-wetlands", "id": 94 }, "geometry": { "type": "Point", "coordinates": [ 367784.999999999883585, 6156945.0, 0.0 ] } },
{ "type": "Feature", "properties": { "W_Class_id": 0, "W_Class_name": "Non-wetlands", "id": 95 }, "geometry": { "type": "Point", "coordinates": [ 299264.999999997904524, 6146354.999999998137355, 0.0 ] } },
{ "type": "Feature", "properties": { "W_Class_id": 2, "W_Class_name": "Wet meadows", "id": 96 }, "geometry": { "type": "Point", "coordinates": [ 325955.000000002386514, 6164955.000000002793968, 0.0 ] } },
{ "type": "Feature", "properties": { "W_Class_id": 0, "W_Class_name": "Non-wetlands", "id": 97 }, "geometry": { "type": "Point", "coordinates": [ 354804.99999999627471, 6142435.0, 0.0 ] } },
{ "type": "Feature", "properties": { "W_Class_id": 2, "W_Class_name": "Wet meadows", "id": 98 }, "geometry": { "type": "Point", "coordinates": [ 323664.999999997206032, 6147405.0, 0.0 ] } },
{ "type": "Feature", "properties": { "W_Class_id": 0, "W_Class_name": "Non-wetlands", "id": 99 }, "geometry": { "type": "Point", "coordinates": [ 350084.999999996973202, 6142494.999999998137355, 0.0 ] } },
{ "type": "Feature", "properties": { "W_Class_id": 0, "W_Class_name": "Non-wetlands", "id": 100 }, "geometry": { "type": "Point", "coordinates": [ 350825.0, 6166115.000000005587935, 0.0 ] } },
{ "type": "Feature", "properties": { "W_Class_id": 3, "W_Class_name": "Artificial wetlands", "id": 101 }, "geometry": { "type": "Point", "coordinates": [ 347125.0, 6149864.999999998137355, 0.0 ] } },
{ "type": "Feature", "properties": { "W_Class_id": 2, "W_Class_name": "Wet meadows", "id": 102 }, "geometry": { "type": "Point", "coordinates": [ 325664.999999997322448, 6158884.999999997206032, 0.0 ] } },
{ "type": "Feature", "properties": { "W_Class_id": 0, "W_Class_name": "Non-wetlands", "id": 103 }, "geometry": { "type": "Point", "coordinates": [ 306665.000000001804437, 6163004.999999997206032, 0.0 ] } },
{ "type": "Feature", "properties": { "W_Class_id": 2, "W_Class_name": "Wet meadows", "id": 104 }, "geometry": { "type": "Point", "coordinates": [ 324625.000000003143214, 6147684.999999998137355, 0.0 ] } },
{ "type": "Feature", "properties": { "W_Class_id": 0, "W_Class_name": "Non-wetlands", "id": 105 }, "geometry": { "type": "Point", "coordinates": [ 360754.999999996158294, 6148685.0, 0.0 ] } },
{ "type": "Feature", "properties": { "W_Class_id": 0, "W_Class_name": "Non-wetlands", "id": 106 }, "geometry": { "type": "Point", "coordinates": [ 324365.000000000407454, 6126265.0, 0.0 ] } },
{ "type": "Feature", "properties": { "W_Class_id": 0, "W_Class_name": "Non-wetlands", "id": 107 }, "geometry": { "type": "Point", "coordinates": [ 326904.999999996623956, 6125735.0, 0.0 ] } },
{ "type": "Feature", "properties": { "W_Class_id": 4, "W_Class_name": "Rivers", "id": 108 }, "geometry": { "type": "Point", "coordinates": [ 364484.999999997031409, 6156595.000000002793968, 0.0 ] } },
{ "type": "Feature", "properties": { "W_Class_id": 2, "W_Class_name": "Wet meadows", "id": 109 }, "geometry": { "type": "Point", "coordinates": [ 312705.000000002211891, 6150935.00000000372529, 0.0 ] } },
{ "type": "Feature", "properties": { "W_Class_id": 2, "W_Class_name": "Wet meadows", "id": 110 }, "geometry": { "type": "Point", "coordinates": [ 339085.000000000814907, 6124475.00000000372529, 0.0 ] } },
{ "type": "Feature", "properties": { "W_Class_id": 4, "W_Class_name": "Rivers", "id": 111 }, "geometry": { "type": "Point", "coordinates": [ 344624.99999999825377, 6170635.0, 0.0 ] } },
{ "type": "Feature", "properties": { "W_Class_id": 0, "W_Class_name": "Non-wetlands", "id": 112 }, "geometry": { "type": "Point", "coordinates": [ 339345.000000003143214, 6168575.0, 0.0 ] } },
{ "type": "Feature", "properties": { "W_Class_id": 2, "W_Class_name": "Wet meadows", "id": 113 }, "geometry": { "type": "Point", "coordinates": [ 346994.999999998370185, 6112865.000000005587935, 0.0 ] } },
{ "type": "Feature", "properties": { "W_Class_id": 3, "W_Class_name": "Artificial wetlands", "id": 114 }, "geometry": { "type": "Point", "coordinates": [ 350014.999999999534339, 6190634.999999994412065, 0.0 ] } },
{ "type": "Feature", "properties": { "W_Class_id": 3, "W_Class_name": "Artificial wetlands", "id": 115 }, "geometry": { "type": "Point", "coordinates": [ 365165.000000004074536, 6138445.0, 0.0 ] } },
{ "type": "Feature", "properties": { "W_Class_id": 0, "W_Class_name": "Non-wetlands", "id": 116 }, "geometry": { "type": "Point", "coordinates": [ 362405.000000001688022, 6136704.999999995343387, 0.0 ] } },
{ "type": "Feature", "properties": { "W_Class_id": 1, "W_Class_name": "Pond", "id": 117 }, "geometry": { "type": "Point", "coordinates": [ 316525.000000000582077, 6149855.0, 0.0 ] } },
{ "type": "Feature", "properties": { "W_Class_id": 0, "W_Class_name": "Non-wetlands", "id": 118 }, "geometry": { "type": "Point", "coordinates": [ 334984.999999999359716, 6134665.00000000372529, 0.0 ] } },
{ "type": "Feature", "properties": { "W_Class_id": 4, "W_Class_name": "Rivers", "id": 119 }, "geometry": { "type": "Point", "coordinates": [ 351755.000000001164153, 6171285.00000000372529, 0.0 ] } },
{ "type": "Feature", "properties": { "W_Class_id": 4, "W_Class_name": "Rivers", "id": 120 }, "geometry": { "type": "Point", "coordinates": [ 331924.999999995459802, 6143265.0, 0.0 ] } },
{ "type": "Feature", "properties": { "W_Class_id": 0, "W_Class_name": "Non-wetlands", "id": 121 }, "geometry": { "type": "Point", "coordinates": [ 294245.000000004074536, 6154575.00000000372529, 0.0 ] } },
{ "type": "Feature", "properties": { "W_Class_id": 0, "W_Class_name": "Non-wetlands", "id": 122 }, "geometry": { "type": "Point", "coordinates": [ 347665.000000002793968, 6173815.0, 0.0 ] } },
{ "type": "Feature", "properties": { "W_Class_id": 1, "W_Class_name": "Pond", "id": 123 }, "geometry": { "type": "Point", "coordinates": [ 326935.000000000523869, 6120285.0, 0.0 ] } },
{ "type": "Feature", "properties": { "W_Class_id": 0, "W_Class_name": "Non-wetlands", "id": 124 }, "geometry": { "type": "Point", "coordinates": [ 352315.0, 6166475.00000000372529, 0.0 ] } },
{ "type": "Feature", "properties": { "W_Class_id": 0, "W_Class_name": "Non-wetlands", "id": 125 }, "geometry": { "type": "Point", "coordinates": [ 336414.999999997555278, 6168115.000000001862645, 0.0 ] } },
{ "type": "Feature", "properties": { "W_Class_id": 2, "W_Class_name": "Wet meadows", "id": 126 }, "geometry": { "type": "Point", "coordinates": [ 313124.999999996682163, 6146974.999999998137355, 0.0 ] } },
{ "type": "Feature", "properties": { "W_Class_id": 1, "W_Class_name": "Pond", "id": 127 }, "geometry": { "type": "Point", "coordinates": [ 345205.00000000273576, 6127814.999999997206032, 0.0 ] } },
{ "type": "Feature", "properties": { "W_Class_id": 0, "W_Class_name": "Non-wetlands", "id": 128 }, "geometry": { "type": "Point", "coordinates": [ 337944.999999994935934, 6160345.000000005587935, 0.0 ] } },
{ "type": "Feature", "properties": { "W_Class_id": 4, "W_Class_name": "Rivers", "id": 129 }, "geometry": { "type": "Point", "coordinates": [ 355614.999999999417923, 6150425.000000001862645, 0.0 ] } },
{ "type": "Feature", "properties": { "W_Class_id": 2, "W_Class_name": "Wet meadows", "id": 130 }, "geometry": { "type": "Point", "coordinates": [ 322955.000000002677552, 6139225.0, 0.0 ] } },
{ "type": "Feature", "properties": { "W_Class_id": 2, "W_Class_name": "Wet meadows", "id": 131 }, "geometry": { "type": "Point", "coordinates": [ 328864.999999997147825, 6143615.0, 0.0 ] } },
{ "type": "Feature", "properties": { "W_Class_id": 2, "W_Class_name": "Wet meadows", "id": 132 }, "geometry": { "type": "Point", "coordinates": [ 324895.000000003376044, 6154884.999999998137355, 0.0 ] } },
{ "type": "Feature", "properties": { "W_Class_id": 2, "W_Class_name": "Wet meadows", "id": 133 }, "geometry": { "type": "Point", "coordinates": [ 326254.999999996623956, 6139244.999999994412065, 0.0 ] } },
{ "type": "Feature", "properties": { "W_Class_id": 2, "W_Class_name": "Wet meadows", "id": 134 }, "geometry": { "type": "Point", "coordinates": [ 300024.999999995110556, 6157914.999999998137355, 0.0 ] } },
{ "type": "Feature", "properties": { "W_Class_id": 2, "W_Class_name": "Wet meadows", "id": 135 }, "geometry": { "type": "Point", "coordinates": [ 344764.999999997380655, 6144965.0, 0.0 ] } },
{ "type": "Feature", "properties": { "W_Class_id": 2, "W_Class_name": "Wet meadows", "id": 136 }, "geometry": { "type": "Point", "coordinates": [ 354195.000000003667083, 6124515.0, 0.0 ] } },
{ "type": "Feature", "properties": { "W_Class_id": 3, "W_Class_name": "Artificial wetlands", "id": 137 }, "geometry": { "type": "Point", "coordinates": [ 327465.000000004074536, 6159194.999999998137355, 0.0 ] } },
{ "type": "Feature", "properties": { "W_Class_id": 4, "W_Class_name": "Rivers", "id": 138 }, "geometry": { "type": "Point", "coordinates": [ 324114.999999996623956, 6158625.0, 0.0 ] } },
{ "type": "Feature", "properties": { "W_Class_id": 2, "W_Class_name": "Wet meadows", "id": 139 }, "geometry": { "type": "Point", "coordinates": [ 313555.000000002910383, 6153565.000000004656613, 0.0 ] } },
{ "type": "Feature", "properties": { "W_Class_id": 4, "W_Class_name": "Rivers", "id": 140 }, "geometry": { "type": "Point", "coordinates": [ 321894.999999995110556, 6162405.00000000372529, 0.0 ] } },
{ "type": "Feature", "properties": { "W_Class_id": 2, "W_Class_name": "Wet meadows", "id": 141 }, "geometry": { "type": "Point", "coordinates": [ 325125.00000000197906, 6161644.999999997206032, 0.0 ] } },
{ "type": "Feature", "properties": { "W_Class_id": 0, "W_Class_name": "Non-wetlands", "id": 142 }, "geometry": { "type": "Point", "coordinates": [ 304005.000000000465661, 6151695.000000004656613, 0.0 ] } },
{ "type": "Feature", "properties": { "W_Class_id": 0, "W_Class_name": "Non-wetlands", "id": 143 }, "geometry": { "type": "Point", "coordinates": [ 371925.000000002444722, 6142344.999999994412065, 0.0 ] } },
{ "type": "Feature", "properties": { "W_Class_id": 2, "W_Class_name": "Wet meadows", "id": 144 }, "geometry": { "type": "Point", "coordinates": [ 345415.000000001513399, 6129254.999999994412065, 0.0 ] } },
{ "type": "Feature", "properties": { "W_Class_id": 3, "W_Class_name": "Artificial wetlands", "id": 145 }, "geometry": { "type": "Point", "coordinates": [ 346924.999999997206032, 6149715.0, 0.0 ] } },
{ "type": "Feature", "properties": { "W_Class_id": 4, "W_Class_name": "Rivers", "id": 146 }, "geometry": { "type": "Point", "coordinates": [ 361634.999999996100087, 6154325.00000000372529, 0.0 ] } },
{ "type": "Feature", "properties": { "W_Class_id": 0, "W_Class_name": "Non-wetlands", "id": 147 }, "geometry": { "type": "Point", "coordinates": [ 350984.999999997788109, 6156685.000000001862645, 0.0 ] } },
{ "type": "Feature", "properties": { "W_Class_id": 0, "W_Class_name": "Non-wetlands", "id": 148 }, "geometry": { "type": "Point", "coordinates": [ 317265.000000001513399, 6128315.0, 0.0 ] } },
{ "type": "Feature", "properties": { "W_Class_id": 2, "W_Class_name": "Wet meadows", "id": 149 }, "geometry": { "type": "Point", "coordinates": [ 353095.000000000174623, 6146315.000000002793968, 0.0 ] } },
{ "type": "Feature", "properties": { "W_Class_id": 0, "W_Class_name": "Non-wetlands", "id": 150 }, "geometry": { "type": "Point", "coordinates": [ 339855.000000000349246, 6139824.999999995343387, 0.0 ] } },
{ "type": "Feature", "properties": { "W_Class_id": 3, "W_Class_name": "Artificial wetlands", "id": 151 }, "geometry": { "type": "Point", "coordinates": [ 355334.999999996158294, 6140625.0, 0.0 ] } },
{ "type": "Feature", "properties": { "W_Class_id": 4, "W_Class_name": "Rivers", "id": 152 }, "geometry": { "type": "Point", "coordinates": [ 356514.999999998311978, 6155785.0, 0.0 ] } },
{ "type": "Feature", "properties": { "W_Class_id": 0, "W_Class_name": "Non-wetlands", "id": 153 }, "geometry": { "type": "Point", "coordinates": [ 319005.000000000116415, 6135725.00000000372529, 0.0 ] } },
{ "type": "Feature", "properties": { "W_Class_id": 0, "W_Class_name": "Non-wetlands", "id": 154 }, "geometry": { "type": "Point", "coordinates": [ 312794.999999995459802, 6168425.0, 0.0 ] } },
{ "type": "Feature", "properties": { "W_Class_id": 2, "W_Class_name": "Wet meadows", "id": 155 }, "geometry": { "type": "Point", "coordinates": [ 331345.000000002211891, 6128185.000000002793968, 0.0 ] } },
{ "type": "Feature", "properties": { "W_Class_id": 2, "W_Class_name": "Wet meadows", "id": 156 }, "geometry": { "type": "Point", "coordinates": [ 313215.000000002910383, 6139965.000000005587935, 0.0 ] } },
{ "type": "Feature", "properties": { "W_Class_id": 0, "W_Class_name": "Non-wetlands", "id": 157 }, "geometry": { "type": "Point", "coordinates": [ 327164.999999994761311, 6145445.0, 0.0 ] } },
{ "type": "Feature", "properties": { "W_Class_id": 4, "W_Class_name": "Rivers", "id": 158 }, "geometry": { "type": "Point", "coordinates": [ 342854.999999995925464, 6145884.999999998137355, 0.0 ] } },
{ "type": "Feature", "properties": { "W_Class_id": 0, "W_Class_name": "Non-wetlands", "id": 159 }, "geometry": { "type": "Point", "coordinates": [ 368945.000000001338776, 6150555.000000001862645, 0.0 ] } },
{ "type": "Feature", "properties": { "W_Class_id": 0, "W_Class_name": "Non-wetlands", "id": 160 }, "geometry": { "type": "Point", "coordinates": [ 369744.99999999551801, 6155905.0, 0.0 ] } },
{ "type": "Feature", "properties": { "W_Class_id": 0, "W_Class_name": "Non-wetlands", "id": 161 }, "geometry": { "type": "Point", "coordinates": [ 368395.000000000698492, 6161154.999999998137355, 0.0 ] } },
{ "type": "Feature", "properties": { "W_Class_id": 3, "W_Class_name": "Artificial wetlands", "id": 162 }, "geometry": { "type": "Point", "coordinates": [ 328385.000000003143214, 6159275.0, 0.0 ] } },
{ "type": "Feature", "properties": { "W_Class_id": 0, "W_Class_name": "Non-wetlands", "id": 163 }, "geometry": { "type": "Point", "coordinates": [ 292724.999999998137355, 6154555.000000001862645, 0.0 ] } },
{ "type": "Feature", "properties": { "W_Class_id": 4, "W_Class_name": "Rivers", "id": 164 }, "geometry": { "type": "Point", "coordinates": [ 349934.999999996856786, 6137484.999999998137355, 0.0 ] } },
{ "type": "Feature", "properties": { "W_Class_id": 3, "W_Class_name": "Artificial wetlands", "id": 165 }, "geometry": { "type": "Point", "coordinates": [ 348784.999999998486601, 6123094.999999995343387, 0.0 ] } },
{ "type": "Feature", "properties": { "W_Class_id": 2, "W_Class_name": "Wet meadows", "id": 166 }, "geometry": { "type": "Point", "coordinates": [ 351115.000000003026798, 6124675.0, 0.0 ] } },
{ "type": "Feature", "properties": { "W_Class_id": 2, "W_Class_name": "Wet meadows", "id": 167 }, "geometry": { "type": "Point", "coordinates": [ 306004.999999998952262, 6165194.999999998137355, 0.0 ] } },
{ "type": "Feature", "properties": { "W_Class_id": 1, "W_Class_name": "Pond", "id": 168 }, "geometry": { "type": "Point", "coordinates": [ 348425.000000000814907, 6122295.000000001862645, 0.0 ] } },
{ "type": "Feature", "properties": { "W_Class_id": 0, "W_Class_name": "Non-wetlands", "id": 169 }, "geometry": { "type": "Point", "coordinates": [ 352614.999999998835847, 6133475.000000002793968, 0.0 ] } },
{ "type": "Feature", "properties": { "W_Class_id": 0, "W_Class_name": "Non-wetlands", "id": 170 }, "geometry": { "type": "Point", "coordinates": [ 322004.99999999551801, 6152885.000000001862645, 0.0 ] } },
{ "type": "Feature", "properties": { "W_Class_id": 1, "W_Class_name": "Pond", "id": 171 }, "geometry": { "type": "Point", "coordinates": [ 322264.999999999534339, 6135395.000000001862645, 0.0 ] } },
{ "type": "Feature", "properties": { "W_Class_id": 2, "W_Class_name": "Wet meadows", "id": 172 }, "geometry": { "type": "Point", "coordinates": [ 313765.000000004190952, 6164285.00000000372529, 0.0 ] } },
{ "type": "Feature", "properties": { "W_Class_id": 3, "W_Class_name": "Artificial wetlands", "id": 173 }, "geometry": { "type": "Point", "coordinates": [ 346884.999999998835847, 6150024.999999998137355, 0.0 ] } },
{ "type": "Feature", "properties": { "W_Class_id": 2, "W_Class_name": "Wet meadows", "id": 174 }, "geometry": { "type": "Point", "coordinates": [ 329014.999999997322448, 6124005.000000004656613, 0.0 ] } },
{ "type": "Feature", "properties": { "W_Class_id": 0, "W_Class_name": "Non-wetlands", "id": 175 }, "geometry": { "type": "Point", "coordinates": [ 366045.000000003608875, 6148755.000000002793968, 0.0 ] } },
{ "type": "Feature", "properties": { "W_Class_id": 0, "W_Class_name": "Non-wetlands", "id": 176 }, "geometry": { "type": "Point", "coordinates": [ 304155.000000001396984, 6147334.999999998137355, 0.0 ] } },
{ "type": "Feature", "properties": { "W_Class_id": 1, "W_Class_name": "Pond", "id": 177 }, "geometry": { "type": "Point", "coordinates": [ 324104.999999998835847, 6171865.000000001862645, 0.0 ] } },
{ "type": "Feature", "properties": { "W_Class_id": 0, "W_Class_name": "Non-wetlands", "id": 178 }, "geometry": { "type": "Point", "coordinates": [ 340444.999999997089617, 6165925.000000004656613, 0.0 ] } },
{ "type": "Feature", "properties": { "W_Class_id": 4, "W_Class_name": "Rivers", "id": 179 }, "geometry": { "type": "Point", "coordinates": [ 340364.999999998079147, 6164505.000000001862645, 0.0 ] } },
{ "type": "Feature", "properties": { "W_Class_id": 0, "W_Class_name": "Non-wetlands", "id": 180 }, "geometry": { "type": "Point", "coordinates": [ 317634.999999996740371, 6127704.999999998137355, 0.0 ] } },
{ "type": "Feature", "properties": { "W_Class_id": 4, "W_Class_name": "Rivers", "id": 181 }, "geometry": { "type": "Point", "coordinates": [ 325335.000000003259629, 6157954.999999995343387, 0.0 ] } },
{ "type": "Feature", "properties": { "W_Class_id": 3, "W_Class_name": "Artificial wetlands", "id": 182 }, "geometry": { "type": "Point", "coordinates": [ 327615.000000003899913, 6161415.00000000372529, 0.0 ] } },
{ "type": "Feature", "properties": { "W_Class_id": 4, "W_Class_name": "Rivers", "id": 183 }, "geometry": { "type": "Point", "coordinates": [ 352925.000000001280569, 6177204.999999998137355, 0.0 ] } },
{ "type": "Feature", "properties": { "W_Class_id": 0, "W_Class_name": "Non-wetlands", "id": 184 }, "geometry": { "type": "Point", "coordinates": [ 305354.999999999185093, 6162484.999999995343387, 0.0 ] } },
{ "type": "Feature", "properties": { "W_Class_id": 0, "W_Class_name": "Non-wetlands", "id": 185 }, "geometry": { "type": "Point", "coordinates": [ 358344.999999995925464, 6144405.0, 0.0 ] } },
{ "type": "Feature", "properties": { "W_Class_id": 0, "W_Class_name": "Non-wetlands", "id": 186 }, "geometry": { "type": "Point", "coordinates": [ 329624.999999997788109, 6153945.000000005587935, 0.0 ] } },
{ "type": "Feature", "properties": { "W_Class_id": 0, "W_Class_name": "Non-wetlands", "id": 187 }, "geometry": { "type": "Point", "coordinates": [ 328284.999999998952262, 6164505.0, 0.0 ] } },
{ "type": "Feature", "properties": { "W_Class_id": 0, "W_Class_name": "Non-wetlands", "id": 188 }, "geometry": { "type": "Point", "coordinates": [ 326095.000000001862645, 6172154.999999997206032, 0.0 ] } },
{ "type": "Feature", "properties": { "W_Class_id": 0, "W_Class_name": "Non-wetlands", "id": 189 }, "geometry": { "type": "Point", "coordinates": [ 353305.000000004190952, 6155135.0, 0.0 ] } },
{ "type": "Feature", "properties": { "W_Class_id": 0, "W_Class_name": "Non-wetlands", "id": 190 }, "geometry": { "type": "Point", "coordinates": [ 340814.999999998952262, 6134985.000000005587935, 0.0 ] } },
{ "type": "Feature", "properties": { "W_Class_id": 2, "W_Class_name": "Wet meadows", "id": 191 }, "geometry": { "type": "Point", "coordinates": [ 312794.999999999534339, 6152915.0, 0.0 ] } },
{ "type": "Feature", "properties": { "W_Class_id": 2, "W_Class_name": "Wet meadows", "id": 192 }, "geometry": { "type": "Point", "coordinates": [ 339035.000000000116415, 6125305.000000001862645, 0.0 ] } },
{ "type": "Feature", "properties": { "W_Class_id": 0, "W_Class_name": "Non-wetlands", "id": 193 }, "geometry": { "type": "Point", "coordinates": [ 344614.999999995634425, 6167685.000000001862645, 0.0 ] } },
{ "type": "Feature", "properties": { "W_Class_id": 1, "W_Class_name": "Pond", "id": 194 }, "geometry": { "type": "Point", "coordinates": [ 326974.999999997322448, 6118785.000000001862645, 0.0 ] } },
{ "type": "Feature", "properties": { "W_Class_id": 0, "W_Class_name": "Non-wetlands", "id": 195 }, "geometry": { "type": "Point", "coordinates": [ 326174.999999999534339, 6140995.0, 0.0 ] } },
{ "type": "Feature", "properties": { "W_Class_id": 4, "W_Class_name": "Rivers", "id": 196 }, "geometry": { "type": "Point", "coordinates": [ 353434.999999997729901, 6187245.0, 0.0 ] } },
{ "type": "Feature", "properties": { "W_Class_id": 3, "W_Class_name": "Artificial wetlands", "id": 197 }, "geometry": { "type": "Point", "coordinates": [ 349724.999999999767169, 6134395.000000004656613, 0.0 ] } },
{ "type": "Feature", "properties": { "W_Class_id": 1, "W_Class_name": "Pond", "id": 198 }, "geometry": { "type": "Point", "coordinates": [ 319474.999999996565748, 6146435.0, 0.0 ] } },
{ "type": "Feature", "properties": { "W_Class_id": 0, "W_Class_name": "Non-wetlands", "id": 199 }, "geometry": { "type": "Point", "coordinates": [ 370084.999999998835847, 6161855.0, 0.0 ] } },
{ "type": "Feature", "properties": { "W_Class_id": 0, "W_Class_name": "Non-wetlands", "id": 200 }, "geometry": { "type": "Point", "coordinates": [ 322445.0, 6124925.0, 0.0 ] } },
{ "type": "Feature", "properties": { "W_Class_id": 3, "W_Class_name": "Artificial wetlands", "id": 201 }, "geometry": { "type": "Point", "coordinates": [ 364894.999999995226972, 6138645.00000000372529, 0.0 ] } },
{ "type": "Feature", "properties": { "W_Class_id": 1, "W_Class_name": "Pond", "id": 202 }, "geometry": { "type": "Point", "coordinates": [ 320925.000000005238689, 6150795.000000001862645, 0.0 ] } },
{ "type": "Feature", "properties": { "W_Class_id": 2, "W_Class_name": "Wet meadows", "id": 203 }, "geometry": { "type": "Point", "coordinates": [ 318425.00000000098953, 6143014.999999994412065, 0.0 ] } },
{ "type": "Feature", "properties": { "W_Class_id": 0, "W_Class_name": "Non-wetlands", "id": 204 }, "geometry": { "type": "Point", "coordinates": [ 304305.00000000197906, 6159435.000000001862645, 0.0 ] } },
{ "type": "Feature", "properties": { "W_Class_id": 2, "W_Class_name": "Wet meadows", "id": 205 }, "geometry": { "type": "Point", "coordinates": [ 327115.000000003259629, 6136365.000000002793968, 0.0 ] } },
{ "type": "Feature", "properties": { "W_Class_id": 0, "W_Class_name": "Non-wetlands", "id": 206 }, "geometry": { "type": "Point", "coordinates": [ 354575.000000000174623, 6155935.00000000372529, 0.0 ] } },
{ "type": "Feature", "properties": { "W_Class_id": 3, "W_Class_name": "Artificial wetlands", "id": 207 }, "geometry": { "type": "Point", "coordinates": [ 329564.999999994644895, 6160735.000000005587935, 0.0 ] } },
{ "type": "Feature", "properties": { "W_Class_id": 4, "W_Class_name": "Rivers", "id": 208 }, "geometry": { "type": "Point", "coordinates": [ 342995.000000001804437, 6169504.999999997206032, 0.0 ] } },
{ "type": "Feature", "properties": { "W_Class_id": 3, "W_Class_name": "Artificial wetlands", "id": 209 }, "geometry": { "type": "Point", "coordinates": [ 329595.000000003958121, 6159264.999999998137355, 0.0 ] } },
{ "type": "Feature", "properties": { "W_Class_id": 0, "W_Class_name": "Non-wetlands", "id": 210 }, "geometry": { "type": "Point", "coordinates": [ 343265.000000004307367, 6143835.000000004656613, 0.0 ] } },
{ "type": "Feature", "properties": { "W_Class_id": 3, "W_Class_name": "Artificial wetlands", "id": 211 }, "geometry": { "type": "Point", "coordinates": [ 344294.999999997788109, 6135585.00000000372529, 0.0 ] } },
{ "type": "Feature", "properties": { "W_Class_id": 3, "W_Class_name": "Artificial wetlands", "id": 212 }, "geometry": { "type": "Point", "coordinates": [ 328964.999999997438863, 6161085.0, 0.0 ] } },
{ "type": "Feature", "properties": { "W_Class_id": 3, "W_Class_name": "Artificial wetlands", "id": 213 }, "geometry": { "type": "Point", "coordinates": [ 329515.000000003958121, 6159535.0, 0.0 ] } },
{ "type": "Feature", "properties": { "W_Class_id": 0, "W_Class_name": "Non-wetlands", "id": 214 }, "geometry": { "type": "Point", "coordinates": [ 321805.00000000174623, 6167334.999999998137355, 0.0 ] } },
{ "type": "Feature", "properties": { "W_Class_id": 2, "W_Class_name": "Wet meadows", "id": 215 }, "geometry": { "type": "Point", "coordinates": [ 311244.999999998835847, 6150975.000000001862645, 0.0 ] } },
{ "type": "Feature", "properties": { "W_Class_id": 0, "W_Class_name": "Non-wetlands", "id": 216 }, "geometry": { "type": "Point", "coordinates": [ 330884.999999995750841, 6142454.999999998137355, 0.0 ] } },
{ "type": "Feature", "properties": { "W_Class_id": 4, "W_Class_name": "Rivers", "id": 217 }, "geometry": { "type": "Point", "coordinates": [ 308144.999999998952262, 6164004.999999997206032, 0.0 ] } },
{ "type": "Feature", "properties": { "W_Class_id": 2, "W_Class_name": "Wet meadows", "id": 218 }, "geometry": { "type": "Point", "coordinates": [ 366725.000000001455192, 6141815.00000000372529, 0.0 ] } },
{ "type": "Feature", "properties": { "W_Class_id": 4, "W_Class_name": "Rivers", "id": 219 }, "geometry": { "type": "Point", "coordinates": [ 339664.999999998603016, 6131115.000000005587935, 0.0 ] } },
{ "type": "Feature", "properties": { "W_Class_id": 2, "W_Class_name": "Wet meadows", "id": 220 }, "geometry": { "type": "Point", "coordinates": [ 320294.999999996391125, 6147464.999999994412065, 0.0 ] } },
{ "type": "Feature", "properties": { "W_Class_id": 0, "W_Class_name": "Non-wetlands", "id": 221 }, "geometry": { "type": "Point", "coordinates": [ 314515.000000001047738, 6151155.0, 0.0 ] } },
{ "type": "Feature", "properties": { "W_Class_id": 2, "W_Class_name": "Wet meadows", "id": 222 }, "geometry": { "type": "Point", "coordinates": [ 353335.000000001164153, 6123615.0, 0.0 ] } },
{ "type": "Feature", "properties": { "W_Class_id": 0, "W_Class_name": "Non-wetlands", "id": 223 }, "geometry": { "type": "Point", "coordinates": [ 316254.999999998719431, 6128485.000000001862645, 0.0 ] } },
{ "type": "Feature", "properties": { "W_Class_id": 2, "W_Class_name": "Wet meadows", "id": 224 }, "geometry": { "type": "Point", "coordinates": [ 321834.999999995576218, 6141354.999999995343387, 0.0 ] } },
{ "type": "Feature", "properties": { "W_Class_id": 0, "W_Class_name": "Non-wetlands", "id": 225 }, "geometry": { "type": "Point", "coordinates": [ 308024.999999999534339, 6139474.999999997206032, 0.0 ] } },
{ "type": "Feature", "properties": { "W_Class_id": 0, "W_Class_name": "Non-wetlands", "id": 226 }, "geometry": { "type": "Point", "coordinates": [ 309545.000000004773028, 6158165.000000001862645, 0.0 ] } },
{ "type": "Feature", "properties": { "W_Class_id": 3, "W_Class_name": "Artificial wetlands", "id": 227 }, "geometry": { "type": "Point", "coordinates": [ 327005.000000001396984, 6159145.000000001862645, 0.0 ] } },
{ "type": "Feature", "properties": { "W_Class_id": 3, "W_Class_name": "Artificial wetlands", "id": 228 }, "geometry": { "type": "Point", "coordinates": [ 343464.999999998835847, 6170774.999999998137355, 0.0 ] } },
{ "type": "Feature", "properties": { "W_Class_id": 0, "W_Class_name": "Non-wetlands", "id": 229 }, "geometry": { "type": "Point", "coordinates": [ 347114.999999998603016, 6163824.999999998137355, 0.0 ] } },
{ "type": "Feature", "properties": { "W_Class_id": 0, "W_Class_name": "Non-wetlands", "id": 230 }, "geometry": { "type": "Point", "coordinates": [ 317174.999999999301508, 6161085.00000000372529, 0.0 ] } },
{ "type": "Feature", "properties": { "W_Class_id": 3, "W_Class_name": "Artificial wetlands", "id": 231 }, "geometry": { "type": "Point", "coordinates": [ 350025.000000001280569, 6187205.000000004656613, 0.0 ] } },
{ "type": "Feature", "properties": { "W_Class_id": 1, "W_Class_name": "Pond", "id": 232 }, "geometry": { "type": "Point", "coordinates": [ 335934.999999996973202, 6149385.0, 0.0 ] } },
{ "type": "Feature", "properties": { "W_Class_id": 0, "W_Class_name": "Non-wetlands", "id": 233 }, "geometry": { "type": "Point", "coordinates": [ 338044.999999997322448, 6170304.999999994412065, 0.0 ] } },
{ "type": "Feature", "properties": { "W_Class_id": 3, "W_Class_name": "Artificial wetlands", "id": 234 }, "geometry": { "type": "Point", "coordinates": [ 349855.000000002328306, 6135425.0, 0.0 ] } },
{ "type": "Feature", "properties": { "W_Class_id": 0, "W_Class_name": "Non-wetlands", "id": 235 }, "geometry": { "type": "Point", "coordinates": [ 356455.000000000291038, 6141555.0, 0.0 ] } },
{ "type": "Feature", "properties": { "W_Class_id": 4, "W_Class_name": "Rivers", "id": 236 }, "geometry": { "type": "Point", "coordinates": [ 352665.000000002270099, 6183484.999999995343387, 0.0 ] } },
{ "type": "Feature", "properties": { "W_Class_id": 0, "W_Class_name": "Non-wetlands", "id": 237 }, "geometry": { "type": "Point", "coordinates": [ 322305.000000004947651, 6162205.0, 0.0 ] } },
{ "type": "Feature", "properties": { "W_Class_id": 2, "W_Class_name": "Wet meadows", "id": 238 }, "geometry": { "type": "Point", "coordinates": [ 361714.999999994761311, 6133665.000000001862645, 0.0 ] } },
{ "type": "Feature", "properties": { "W_Class_id": 0, "W_Class_name": "Non-wetlands", "id": 239 }, "geometry": { "type": "Point", "coordinates": [ 338244.999999999185093, 6166635.000000002793968, 0.0 ] } },
{ "type": "Feature", "properties": { "W_Class_id": 2, "W_Class_name": "Wet meadows", "id": 240 }, "geometry": { "type": "Point", "coordinates": [ 316244.999999999825377, 6149205.0, 0.0 ] } },
{ "type": "Feature", "properties": { "W_Class_id": 2, "W_Class_name": "Wet meadows", "id": 241 }, "geometry": { "type": "Point", "coordinates": [ 317594.999999995809048, 6155885.0, 0.0 ] } },
{ "type": "Feature", "properties": { "W_Class_id": 0, "W_Class_name": "Non-wetlands", "id": 242 }, "geometry": { "type": "Point", "coordinates": [ 363835.0, 6138185.00000000372529, 0.0 ] } },
{ "type": "Feature", "properties": { "W_Class_id": 0, "W_Class_name": "Non-wetlands", "id": 243 }, "geometry": { "type": "Point", "coordinates": [ 350604.999999994877726, 6183364.999999998137355, 0.0 ] } },
{ "type": "Feature", "properties": { "W_Class_id": 0, "W_Class_name": "Non-wetlands", "id": 244 }, "geometry": { "type": "Point", "coordinates": [ 333695.000000001164153, 6175595.0, 0.0 ] } },
{ "type": "Feature", "properties": { "W_Class_id": 0, "W_Class_name": "Non-wetlands", "id": 245 }, "geometry": { "type": "Point", "coordinates": [ 336984.999999997846317, 6150765.0, 0.0 ] } },
{ "type": "Feature", "properties": { "W_Class_id": 1, "W_Class_name": "Pond", "id": 246 }, "geometry": { "type": "Point", "coordinates": [ 309135.000000003667083, 6137514.999999998137355, 0.0 ] } },
{ "type": "Feature", "properties": { "W_Class_id": 0, "W_Class_name": "Non-wetlands", "id": 247 }, "geometry": { "type": "Point", "coordinates": [ 327344.999999999767169, 6132544.999999998137355, 0.0 ] } },
{ "type": "Feature", "properties": { "W_Class_id": 2, "W_Class_name": "Wet meadows", "id": 248 }, "geometry": { "type": "Point", "coordinates": [ 336384.999999998952262, 6143185.00000000372529, 0.0 ] } },
{ "type": "Feature", "properties": { "W_Class_id": 0, "W_Class_name": "Non-wetlands", "id": 249 }, "geometry": { "type": "Point", "coordinates": [ 358674.999999997788109, 6142075.000000005587935, 0.0 ] } },
{ "type": "Feature", "properties": { "W_Class_id": 0, "W_Class_name": "Non-wetlands", "id": 250 }, "geometry": { "type": "Point", "coordinates": [ 331474.999999998894054, 6162825.000000005587935, 0.0 ] } },
{ "type": "Feature", "properties": { "W_Class_id": 2, "W_Class_name": "Wet meadows", "id": 251 }, "geometry": { "type": "Point", "coordinates": [ 296604.999999999767169, 6142965.000000002793968, 0.0 ] } },
{ "type": "Feature", "properties": { "W_Class_id": 3, "W_Class_name": "Artificial wetlands", "id": 252 }, "geometry": { "type": "Point", "coordinates": [ 351945.000000001862645, 6143255.000000001862645, 0.0 ] } },
{ "type": "Feature", "properties": { "W_Class_id": 2, "W_Class_name": "Wet meadows", "id": 253 }, "geometry": { "type": "Point", "coordinates": [ 324954.999999998137355, 6124974.999999998137355, 0.0 ] } },
{ "type": "Feature", "properties": { "W_Class_id": 0, "W_Class_name": "Non-wetlands", "id": 254 }, "geometry": { "type": "Point", "coordinates": [ 294814.999999997438863, 6155225.000000002793968, 0.0 ] } },
{ "type": "Feature", "properties": { "W_Class_id": 4, "W_Class_name": "Rivers", "id": 255 }, "geometry": { "type": "Point", "coordinates": [ 348695.00000000174623, 6174065.0, 0.0 ] } },
{ "type": "Feature", "properties": { "W_Class_id": 2, "W_Class_name": "Wet meadows", "id": 256 }, "geometry": { "type": "Point", "coordinates": [ 343845.000000000582077, 6137904.999999995343387, 0.0 ] } },
{ "type": "Feature", "properties": { "W_Class_id": 1, "W_Class_name": "Pond", "id": 257 }, "geometry": { "type": "Point", "coordinates": [ 345835.000000003317837, 6124464.999999997206032, 0.0 ] } },
{ "type": "Feature", "properties": { "W_Class_id": 1, "W_Class_name": "Pond", "id": 258 }, "geometry": { "type": "Point", "coordinates": [ 300645.000000004423782, 6161695.0, 0.0 ] } },
{ "type": "Feature", "properties": { "W_Class_id": 3, "W_Class_name": "Artificial wetlands", "id": 259 }, "geometry": { "type": "Point", "coordinates": [ 367135.000000005122274, 6160855.0, 0.0 ] } },
{ "type": "Feature", "properties": { "W_Class_id": 0, "W_Class_name": "Non-wetlands", "id": 260 }, "geometry": { "type": "Point", "coordinates": [ 311304.999999998719431, 6169064.999999997206032, 0.0 ] } },
{ "type": "Feature", "properties": { "W_Class_id": 2, "W_Class_name": "Wet meadows", "id": 261 }, "geometry": { "type": "Point", "coordinates": [ 345794.99999999825377, 6114875.000000004656613, 0.0 ] } },
{ "type": "Feature", "properties": { "W_Class_id": 4, "W_Class_name": "Rivers", "id": 262 }, "geometry": { "type": "Point", "coordinates": [ 350305.000000001047738, 6189615.000000001862645, 0.0 ] } },
{ "type": "Feature", "properties": { "W_Class_id": 0, "W_Class_name": "Non-wetlands", "id": 263 }, "geometry": { "type": "Point", "coordinates": [ 324294.999999998370185, 6160835.0, 0.0 ] } },
{ "type": "Feature", "properties": { "W_Class_id": 2, "W_Class_name": "Wet meadows", "id": 264 }, "geometry": { "type": "Point", "coordinates": [ 351445.000000003841706, 6123425.000000005587935, 0.0 ] } },
{ "type": "Feature", "properties": { "W_Class_id": 4, "W_Class_name": "Rivers", "id": 265 }, "geometry": { "type": "Point", "coordinates": [ 360624.999999996973202, 6153855.0, 0.0 ] } },
{ "type": "Feature", "properties": { "W_Class_id": 0, "W_Class_name": "Non-wetlands", "id": 266 }, "geometry": { "type": "Point", "coordinates": [ 354805.000000001629815, 6136774.999999997206032, 0.0 ] } },
{ "type": "Feature", "properties": { "W_Class_id": 1, "W_Class_name": "Pond", "id": 267 }, "geometry": { "type": "Point", "coordinates": [ 301905.0, 6150735.00000000372529, 0.0 ] } },
{ "type": "Feature", "properties": { "W_Class_id": 0, "W_Class_name": "Non-wetlands", "id": 268 }, "geometry": { "type": "Point", "coordinates": [ 349454.999999994877726, 6120555.00000000372529, 0.0 ] } },
{ "type": "Feature", "properties": { "W_Class_id": 1, "W_Class_name": "Pond", "id": 269 }, "geometry": { "type": "Point", "coordinates": [ 310805.000000002037268, 6159785.0, 0.0 ] } },
{ "type": "Feature", "properties": { "W_Class_id": 1, "W_Class_name": "Pond", "id": 270 }, "geometry": { "type": "Point", "coordinates": [ 313295.0, 6158585.00000000372529, 0.0 ] } },
{ "type": "Feature", "properties": { "W_Class_id": 0, "W_Class_name": "Non-wetlands", "id": 271 }, "geometry": { "type": "Point", "coordinates": [ 340094.999999995692633, 6171905.0, 0.0 ] } },
{ "type": "Feature", "properties": { "W_Class_id": 0, "W_Class_name": "Non-wetlands", "id": 272 }, "geometry": { "type": "Point", "coordinates": [ 342124.999999998544808, 6173175.00000000372529, 0.0 ] } },
{ "type": "Feature", "properties": { "W_Class_id": 0, "W_Class_name": "Non-wetlands", "id": 273 }, "geometry": { "type": "Point", "coordinates": [ 351475.00000000349246, 6154995.000000001862645, 0.0 ] } },
{ "type": "Feature", "properties": { "W_Class_id": 2, "W_Class_name": "Wet meadows", "id": 274 }, "geometry": { "type": "Point", "coordinates": [ 352244.999999996856786, 6124795.0, 0.0 ] } },
{ "type": "Feature", "properties": { "W_Class_id": 2, "W_Class_name": "Wet meadows", "id": 275 }, "geometry": { "type": "Point", "coordinates": [ 333465.000000002910383, 6134435.00000000372529, 0.0 ] } },
{ "type": "Feature", "properties": { "W_Class_id": 4, "W_Class_name": "Rivers", "id": 276 }, "geometry": { "type": "Point", "coordinates": [ 348305.000000003550667, 6137125.00000000372529, 0.0 ] } },
{ "type": "Feature", "properties": { "W_Class_id": 0, "W_Class_name": "Non-wetlands", "id": 277 }, "geometry": { "type": "Point", "coordinates": [ 357704.999999997788109, 6129885.0, 0.0 ] } },
{ "type": "Feature", "properties": { "W_Class_id": 4, "W_Class_name": "Rivers", "id": 278 }, "geometry": { "type": "Point", "coordinates": [ 325965.000000002270099, 6162174.999999997206032, 0.0 ] } },
{ "type": "Feature", "properties": { "W_Class_id": 2, "W_Class_name": "Wet meadows", "id": 279 }, "geometry": { "type": "Point", "coordinates": [ 304074.999999999417923, 6144164.999999995343387, 0.0 ] } },
{ "type": "Feature", "properties": { "W_Class_id": 1, "W_Class_name": "Pond", "id": 280 }, "geometry": { "type": "Point", "coordinates": [ 303504.999999999592546, 6146275.00000000372529, 0.0 ] } },
{ "type": "Feature", "properties": { "W_Class_id": 0, "W_Class_name": "Non-wetlands", "id": 281 }, "geometry": { "type": "Point", "coordinates": [ 340945.000000004423782, 6148025.000000002793968, 0.0 ] } },
{ "type": "Feature", "properties": { "W_Class_id": 2, "W_Class_name": "Wet meadows", "id": 282 }, "geometry": { "type": "Point", "coordinates": [ 366064.999999995809048, 6151715.00000000372529, 0.0 ] } },
{ "type": "Feature", "properties": { "W_Class_id": 4, "W_Class_name": "Rivers", "id": 283 }, "geometry": { "type": "Point", "coordinates": [ 342425.000000004423782, 6168854.999999995343387, 0.0 ] } },
{ "type": "Feature", "properties": { "W_Class_id": 0, "W_Class_name": "Non-wetlands", "id": 284 }, "geometry": { "type": "Point", "coordinates": [ 345405.00000000273576, 6119215.0, 0.0 ] } },
{ "type": "Feature", "properties": { "W_Class_id": 0, "W_Class_name": "Non-wetlands", "id": 285 }, "geometry": { "type": "Point", "coordinates": [ 356674.999999994179234, 6158375.0, 0.0 ] } },
{ "type": "Feature", "properties": { "W_Class_id": 0, "W_Class_name": "Non-wetlands", "id": 286 }, "geometry": { "type": "Point", "coordinates": [ 332735.000000004889444, 6154674.999999998137355, 0.0 ] } },
{ "type": "Feature", "properties": { "W_Class_id": 0, "W_Class_name": "Non-wetlands", "id": 287 }, "geometry": { "type": "Point", "coordinates": [ 348805.0000000007567, 6184725.000000001862645, 0.0 ] } },
{ "type": "Feature", "properties": { "W_Class_id": 3, "W_Class_name": "Artificial wetlands", "id": 288 }, "geometry": { "type": "Point", "coordinates": [ 320205.0000000007567, 6126085.000000001862645, 0.0 ] } },
{ "type": "Feature", "properties": { "W_Class_id": 4, "W_Class_name": "Rivers", "id": 289 }, "geometry": { "type": "Point", "coordinates": [ 341355.000000002619345, 6145774.999999998137355, 0.0 ] } },
{ "type": "Feature", "properties": { "W_Class_id": 0, "W_Class_name": "Non-wetlands", "id": 290 }, "geometry": { "type": "Point", "coordinates": [ 349865.000000004773028, 6163465.000000002793968, 0.0 ] } },
{ "type": "Feature", "properties": { "W_Class_id": 1, "W_Class_name": "Pond", "id": 291 }, "geometry": { "type": "Point", "coordinates": [ 325805.000000003608875, 6116685.0, 0.0 ] } },
{ "type": "Feature", "properties": { "W_Class_id": 0, "W_Class_name": "Non-wetlands", "id": 292 }, "geometry": { "type": "Point", "coordinates": [ 315005.000000000116415, 6155845.0, 0.0 ] } },
{ "type": "Feature", "properties": { "W_Class_id": 0, "W_Class_name": "Non-wetlands", "id": 293 }, "geometry": { "type": "Point", "coordinates": [ 323614.999999998719431, 6125465.0, 0.0 ] } },
{ "type": "Feature", "properties": { "W_Class_id": 0, "W_Class_name": "Non-wetlands", "id": 294 }, "geometry": { "type": "Point", "coordinates": [ 305745.000000004889444, 6135455.0, 0.0 ] } },
{ "type": "Feature", "properties": { "W_Class_id": 4, "W_Class_name": "Rivers", "id": 295 }, "geometry": { "type": "Point", "coordinates": [ 352045.000000003841706, 6188975.0, 0.0 ] } },
{ "type": "Feature", "properties": { "W_Class_id": 3, "W_Class_name": "Artificial wetlands", "id": 296 }, "geometry": { "type": "Point", "coordinates": [ 351585.000000001629815, 6187355.000000001862645, 0.0 ] } },
{ "type": "Feature", "properties": { "W_Class_id": 2, "W_Class_name": "Wet meadows", "id": 297 }, "geometry": { "type": "Point", "coordinates": [ 313734.999999999417923, 6145335.00000000372529, 0.0 ] } },
{ "type": "Feature", "properties": { "W_Class_id": 2, "W_Class_name": "Wet meadows", "id": 298 }, "geometry": { "type": "Point", "coordinates": [ 337274.999999996623956, 6114445.0, 0.0 ] } },
{ "type": "Feature", "properties": { "W_Class_id": 4, "W_Class_name": "Rivers", "id": 299 }, "geometry": { "type": "Point", "coordinates": [ 348325.000000001047738, 6173885.000000001862645, 0.0 ] } },
{ "type": "Feature", "properties": { "W_Class_id": 3, "W_Class_name": "Artificial wetlands", "id": 300 }, "geometry": { "type": "Point", "coordinates": [ 350834.999999999592546, 6186925.00000000372529, 0.0 ] } },
{ "type": "Feature", "properties": { "W_Class_id": 2, "W_Class_name": "Wet meadows", "id": 301 }, "geometry": { "type": "Point", "coordinates": [ 365404.999999996740371, 6152495.000000001862645, 0.0 ] } },
{ "type": "Feature", "properties": { "W_Class_id": 2, "W_Class_name": "Wet meadows", "id": 302 }, "geometry": { "type": "Point", "coordinates": [ 334914.999999996740371, 6143155.0, 0.0 ] } },
{ "type": "Feature", "properties": { "W_Class_id": 1, "W_Class_name": "Pond", "id": 303 }, "geometry": { "type": "Point", "coordinates": [ 313094.999999995634425, 6137344.999999998137355, 0.0 ] } },
{ "type": "Feature", "properties": { "W_Class_id": 4, "W_Class_name": "Rivers", "id": 304 }, "geometry": { "type": "Point", "coordinates": [ 351075.000000004074536, 6146994.999999994412065, 0.0 ] } },
{ "type": "Feature", "properties": { "W_Class_id": 0, "W_Class_name": "Non-wetlands", "id": 305 }, "geometry": { "type": "Point", "coordinates": [ 345555.000000003667083, 6158065.000000002793968, 0.0 ] } },
{ "type": "Feature", "properties": { "W_Class_id": 4, "W_Class_name": "Rivers", "id": 306 }, "geometry": { "type": "Point", "coordinates": [ 321474.999999999767169, 6162565.000000001862645, 0.0 ] } },
{ "type": "Feature", "properties": { "W_Class_id": 2, "W_Class_name": "Wet meadows", "id": 307 }, "geometry": { "type": "Point", "coordinates": [ 359375.000000001804437, 6125875.00000000372529, 0.0 ] } },
{ "type": "Feature", "properties": { "W_Class_id": 3, "W_Class_name": "Artificial wetlands", "id": 308 }, "geometry": { "type": "Point", "coordinates": [ 326474.99999999627471, 6158944.999999997206032, 0.0 ] } },
{ "type": "Feature", "properties": { "W_Class_id": 1, "W_Class_name": "Pond", "id": 309 }, "geometry": { "type": "Point", "coordinates": [ 297934.999999996623956, 6154655.00000000372529, 0.0 ] } },
{ "type": "Feature", "properties": { "W_Class_id": 2, "W_Class_name": "Wet meadows", "id": 310 }, "geometry": { "type": "Point", "coordinates": [ 323995.00000000197906, 6155605.0, 0.0 ] } },
{ "type": "Feature", "properties": { "W_Class_id": 0, "W_Class_name": "Non-wetlands", "id": 311 }, "geometry": { "type": "Point", "coordinates": [ 297654.999999995110556, 6158115.000000004656613, 0.0 ] } },
{ "type": "Feature", "properties": { "W_Class_id": 0, "W_Class_name": "Non-wetlands", "id": 312 }, "geometry": { "type": "Point", "coordinates": [ 359325.000000000931323, 6180215.0, 0.0 ] } },
{ "type": "Feature", "properties": { "W_Class_id": 0, "W_Class_name": "Non-wetlands", "id": 313 }, "geometry": { "type": "Point", "coordinates": [ 332765.00000000349246, 6138195.000000005587935, 0.0 ] } },
{ "type": "Feature", "properties": { "W_Class_id": 3, "W_Class_name": "Artificial wetlands", "id": 314 }, "geometry": { "type": "Point", "coordinates": [ 318395.000000001396984, 6163985.0, 0.0 ] } },
{ "type": "Feature", "properties": { "W_Class_id": 1, "W_Class_name": "Pond", "id": 315 }, "geometry": { "type": "Point", "coordinates": [ 315424.999999998894054, 6132374.999999998137355, 0.0 ] } },
{ "type": "Feature", "properties": { "W_Class_id": 0, "W_Class_name": "Non-wetlands", "id": 316 }, "geometry": { "type": "Point", "coordinates": [ 347424.99999999627471, 6158485.0, 0.0 ] } },
{ "type": "Feature", "properties": { "W_Class_id": 3, "W_Class_name": "Artificial wetlands", "id": 317 }, "geometry": { "type": "Point", "coordinates": [ 331744.999999995052349, 6143835.0, 0.0 ] } },
{ "type": "Feature", "properties": { "W_Class_id": 0, "W_Class_name": "Non-wetlands", "id": 318 }, "geometry": { "type": "Point", "coordinates": [ 317344.999999999767169, 6166035.0, 0.0 ] } },
{ "type": "Feature", "properties": { "W_Class_id": 4, "W_Class_name": "Rivers", "id": 319 }, "geometry": { "type": "Point", "coordinates": [ 352814.999999999825377, 6178544.999999998137355, 0.0 ] } },
{ "type": "Feature", "properties": { "W_Class_id": 0, "W_Class_name": "Non-wetlands", "id": 320 }, "geometry": { "type": "Point", "coordinates": [ 343354.999999997206032, 6116985.0, 0.0 ] } },
{ "type": "Feature", "properties": { "W_Class_id": 0, "W_Class_name": "Non-wetlands", "id": 321 }, "geometry": { "type": "Point", "coordinates": [ 340035.00000000448199, 6151345.0, 0.0 ] } },
{ "type": "Feature", "properties": { "W_Class_id": 0, "W_Class_name": "Non-wetlands", "id": 322 }, "geometry": { "type": "Point", "coordinates": [ 314604.999999999650754, 6138565.0, 0.0 ] } },
{ "type": "Feature", "properties": { "W_Class_id": 0, "W_Class_name": "Non-wetlands", "id": 323 }, "geometry": { "type": "Point", "coordinates": [ 327764.999999998952262, 6137314.999999997206032, 0.0 ] } },
{ "type": "Feature", "properties": { "W_Class_id": 0, "W_Class_name": "Non-wetlands", "id": 324 }, "geometry": { "type": "Point", "coordinates": [ 315305.000000003608875, 6169295.000000005587935, 0.0 ] } },
{ "type": "Feature", "properties": { "W_Class_id": 3, "W_Class_name": "Artificial wetlands", "id": 325 }, "geometry": { "type": "Point", "coordinates": [ 351775.000000001047738, 6192235.00000000372529, 0.0 ] } },
{ "type": "Feature", "properties": { "W_Class_id": 0, "W_Class_name": "Non-wetlands", "id": 326 }, "geometry": { "type": "Point", "coordinates": [ 322165.000000000349246, 6161215.00000000372529, 0.0 ] } },
{ "type": "Feature", "properties": { "W_Class_id": 3, "W_Class_name": "Artificial wetlands", "id": 327 }, "geometry": { "type": "Point", "coordinates": [ 366575.000000003317837, 6163425.0, 0.0 ] } },
{ "type": "Feature", "properties": { "W_Class_id": 4, "W_Class_name": "Rivers", "id": 328 }, "geometry": { "type": "Point", "coordinates": [ 370164.999999999767169, 6163755.0, 0.0 ] } },
{ "type": "Feature", "properties": { "W_Class_id": 0, "W_Class_name": "Non-wetlands", "id": 329 }, "geometry": { "type": "Point", "coordinates": [ 320145.00000000372529, 6140145.0, 0.0 ] } },
{ "type": "Feature", "properties": { "W_Class_id": 1, "W_Class_name": "Pond", "id": 330 }, "geometry": { "type": "Point", "coordinates": [ 345425.000000000465661, 6113934.999999994412065, 0.0 ] } },
{ "type": "Feature", "properties": { "W_Class_id": 2, "W_Class_name": "Wet meadows", "id": 331 }, "geometry": { "type": "Point", "coordinates": [ 319464.999999996100087, 6144275.0, 0.0 ] } },
{ "type": "Feature", "properties": { "W_Class_id": 0, "W_Class_name": "Non-wetlands", "id": 332 }, "geometry": { "type": "Point", "coordinates": [ 352225.000000003259629, 6186055.000000005587935, 0.0 ] } },
{ "type": "Feature", "properties": { "W_Class_id": 4, "W_Class_name": "Rivers", "id": 333 }, "geometry": { "type": "Point", "coordinates": [ 354215.00000000349246, 6189405.000000002793968, 0.0 ] } },
{ "type": "Feature", "properties": { "W_Class_id": 0, "W_Class_name": "Non-wetlands", "id": 334 }, "geometry": { "type": "Point", "coordinates": [ 351065.000000002095476, 6156315.0, 0.0 ] } },
{ "type": "Feature", "properties": { "W_Class_id": 2, "W_Class_name": "Wet meadows", "id": 335 }, "geometry": { "type": "Point", "coordinates": [ 311485.000000000698492, 6151085.0, 0.0 ] } },
{ "type": "Feature", "properties": { "W_Class_id": 4, "W_Class_name": "Rivers", "id": 336 }, "geometry": { "type": "Point", "coordinates": [ 349534.999999998603016, 6174885.0, 0.0 ] } },
{ "type": "Feature", "properties": { "W_Class_id": 0, "W_Class_name": "Non-wetlands", "id": 337 }, "geometry": { "type": "Point", "coordinates": [ 366165.000000004773028, 6142125.00000000372529, 0.0 ] } },
{ "type": "Feature", "properties": { "W_Class_id": 3, "W_Class_name": "Artificial wetlands", "id": 338 }, "geometry": { "type": "Point", "coordinates": [ 348114.999999999650754, 6127765.000000001862645, 0.0 ] } },
{ "type": "Feature", "properties": { "W_Class_id": 4, "W_Class_name": "Rivers", "id": 339 }, "geometry": { "type": "Point", "coordinates": [ 371655.000000004773028, 6163695.00000000372529, 0.0 ] } },
{ "type": "Feature", "properties": { "W_Class_id": 0, "W_Class_name": "Non-wetlands", "id": 340 }, "geometry": { "type": "Point", "coordinates": [ 323884.999999999650754, 6141395.000000001862645, 0.0 ] } },
{ "type": "Feature", "properties": { "W_Class_id": 0, "W_Class_name": "Non-wetlands", "id": 341 }, "geometry": { "type": "Point", "coordinates": [ 304594.999999998719431, 6137134.999999997206032, 0.0 ] } },
{ "type": "Feature", "properties": { "W_Class_id": 3, "W_Class_name": "Artificial wetlands", "id": 342 }, "geometry": { "type": "Point", "coordinates": [ 346784.999999998719431, 6149425.0, 0.0 ] } },
{ "type": "Feature", "properties": { "W_Class_id": 0, "W_Class_name": "Non-wetlands", "id": 343 }, "geometry": { "type": "Point", "coordinates": [ 355365.000000004074536, 6141834.999999997206032, 0.0 ] } },
{ "type": "Feature", "properties": { "W_Class_id": 0, "W_Class_name": "Non-wetlands", "id": 344 }, "geometry": { "type": "Point", "coordinates": [ 323275.000000001338776, 6134534.999999994412065, 0.0 ] } },
{ "type": "Feature", "properties": { "W_Class_id": 2, "W_Class_name": "Wet meadows", "id": 345 }, "geometry": { "type": "Point", "coordinates": [ 307434.999999998137355, 6142704.999999998137355, 0.0 ] } },
{ "type": "Feature", "properties": { "W_Class_id": 0, "W_Class_name": "Non-wetlands", "id": 346 }, "geometry": { "type": "Point", "coordinates": [ 359685.000000000232831, 6147614.999999998137355, 0.0 ] } },
{ "type": "Feature", "properties": { "W_Class_id": 2, "W_Class_name": "Wet meadows", "id": 347 }, "geometry": { "type": "Point", "coordinates": [ 357854.999999997322448, 6130445.00000000372529, 0.0 ] } },
{ "type": "Feature", "properties": { "W_Class_id": 0, "W_Class_name": "Non-wetlands", "id": 348 }, "geometry": { "type": "Point", "coordinates": [ 372515.00000000349246, 6138375.0, 0.0 ] } },
{ "type": "Feature", "properties": { "W_Class_id": 2, "W_Class_name": "Wet meadows", "id": 349 }, "geometry": { "type": "Point", "coordinates": [ 335925.000000003376044, 6134915.00000000372529, 0.0 ] } },
{ "type": "Feature", "properties": { "W_Class_id": 0, "W_Class_name": "Non-wetlands", "id": 350 }, "geometry": { "type": "Point", "coordinates": [ 323725.000000005122274, 6159015.00000000372529, 0.0 ] } },
{ "type": "Feature", "properties": { "W_Class_id": 0, "W_Class_name": "Non-wetlands", "id": 351 }, "geometry": { "type": "Point", "coordinates": [ 367425.000000002852175, 6164915.0, 0.0 ] } },
{ "type": "Feature", "properties": { "W_Class_id": 2, "W_Class_name": "Wet meadows", "id": 352 }, "geometry": { "type": "Point", "coordinates": [ 322345.000000000465661, 6145475.000000004656613, 0.0 ] } },
{ "type": "Feature", "properties": { "W_Class_id": 1, "W_Class_name": "Pond", "id": 353 }, "geometry": { "type": "Point", "coordinates": [ 319615.000000002502929, 6156894.999999998137355, 0.0 ] } },
{ "type": "Feature", "properties": { "W_Class_id": 1, "W_Class_name": "Pond", "id": 354 }, "geometry": { "type": "Point", "coordinates": [ 304524.999999996623956, 6138915.00000000372529, 0.0 ] } },
{ "type": "Feature", "properties": { "W_Class_id": 4, "W_Class_name": "Rivers", "id": 355 }, "geometry": { "type": "Point", "coordinates": [ 346004.999999998370185, 6148315.0, 0.0 ] } },
{ "type": "Feature", "properties": { "W_Class_id": 1, "W_Class_name": "Pond", "id": 356 }, "geometry": { "type": "Point", "coordinates": [ 326514.99999999825377, 6132465.000000001862645, 0.0 ] } },
{ "type": "Feature", "properties": { "W_Class_id": 3, "W_Class_name": "Artificial wetlands", "id": 357 }, "geometry": { "type": "Point", "coordinates": [ 319415.000000002328306, 6163755.000000002793968, 0.0 ] } },
{ "type": "Feature", "properties": { "W_Class_id": 0, "W_Class_name": "Non-wetlands", "id": 358 }, "geometry": { "type": "Point", "coordinates": [ 343114.999999996973202, 6175864.999999995343387, 0.0 ] } },
{ "type": "Feature", "properties": { "W_Class_id": 0, "W_Class_name": "Non-wetlands", "id": 359 }, "geometry": { "type": "Point", "coordinates": [ 299405.000000002910383, 6152025.0, 0.0 ] } },
{ "type": "Feature", "properties": { "W_Class_id": 0, "W_Class_name": "Non-wetlands", "id": 360 }, "geometry": { "type": "Point", "coordinates": [ 368294.99999999825377, 6141965.0, 0.0 ] } },
{ "type": "Feature", "properties": { "W_Class_id": 3, "W_Class_name": "Artificial wetlands", "id": 361 }, "geometry": { "type": "Point", "coordinates": [ 339925.000000001280569, 6113894.999999998137355, 0.0 ] } },
{ "type": "Feature", "properties": { "W_Class_id": 0, "W_Class_name": "Non-wetlands", "id": 362 }, "geometry": { "type": "Point", "coordinates": [ 347755.000000000931323, 6166034.999999994412065, 0.0 ] } },
{ "type": "Feature", "properties": { "W_Class_id": 0, "W_Class_name": "Non-wetlands", "id": 363 }, "geometry": { "type": "Point", "coordinates": [ 318685.000000001396984, 6131544.999999997206032, 0.0 ] } },
{ "type": "Feature", "properties": { "W_Class_id": 0, "W_Class_name": "Non-wetlands", "id": 364 }, "geometry": { "type": "Point", "coordinates": [ 339894.999999997962732, 6122054.999999998137355, 0.0 ] } },
{ "type": "Feature", "properties": { "W_Class_id": 0, "W_Class_name": "Non-wetlands", "id": 365 }, "geometry": { "type": "Point", "coordinates": [ 326244.999999997089617, 6165844.999999998137355, 0.0 ] } },
{ "type": "Feature", "properties": { "W_Class_id": 0, "W_Class_name": "Non-wetlands", "id": 366 }, "geometry": { "type": "Point", "coordinates": [ 357344.999999997322448, 6178425.000000004656613, 0.0 ] } },
{ "type": "Feature", "properties": { "W_Class_id": 2, "W_Class_name": "Wet meadows", "id": 367 }, "geometry": { "type": "Point", "coordinates": [ 304154.999999996041879, 6136195.000000005587935, 0.0 ] } },
{ "type": "Feature", "properties": { "W_Class_id": 0, "W_Class_name": "Non-wetlands", "id": 368 }, "geometry": { "type": "Point", "coordinates": [ 344354.999999995692633, 6117374.999999994412065, 0.0 ] } },
{ "type": "Feature", "properties": { "W_Class_id": 0, "W_Class_name": "Non-wetlands", "id": 369 }, "geometry": { "type": "Point", "coordinates": [ 324204.999999999534339, 6115855.0, 0.0 ] } },
{ "type": "Feature", "properties": { "W_Class_id": 3, "W_Class_name": "Artificial wetlands", "id": 370 }, "geometry": { "type": "Point", "coordinates": [ 328095.000000000407454, 6160654.999999998137355, 0.0 ] } },
{ "type": "Feature", "properties": { "W_Class_id": 0, "W_Class_name": "Non-wetlands", "id": 371 }, "geometry": { "type": "Point", "coordinates": [ 316435.00000000273576, 6133975.0, 0.0 ] } }
]
}
